start=new Date('2022-10-18T00:00:00.000Z').valueOf();
sats=[{"OBJECT_NAME":"STARLINK-4493","REV_AT_EPOCH":"130","OBJECT_TYPE":"PAYLOAD","CLASSIFICATION_TYPE":"U","BSTAR":"-0.00096003000000","TLE_LINE1":"1 53533U 22101G   22290.91667824 -.00015542  00000-0 -96003-3 0  9993","COUNTRY_CODE":"US","INCLINATION":"53.2169","EPOCH":"2022-10-17T22:00:00.999936","ECCENTRICITY":"0.00015550","ELEMENT_SET_NO":"999","ARG_OF_PERICENTER":"62.0266","DECAY_DATE":null,"RA_OF_ASC_NODE":"235.1747","SEMIMAJOR_AXIS":"6917.822","MEAN_MOTION_DOT":"-0.00015542","SITE":"AFETR","CENTER_NAME":"EARTH","FILE":"3620294","TIME_SYSTEM":"UTC","EPHEMERIS_TYPE":"0","MEAN_ANOMALY":"329.8893","GP_ID":"215452494","TLE_LINE2":"2 53533  53.2169 235.1747 0001555  62.0266 329.8893 15.08859203  1301","OBJECT_ID":"2022-101G","REF_FRAME":"TEME","PERIAPSIS":"538.611","MEAN_MOTION_DDOT":"0.0000000000000","NORAD_CAT_ID":"53533","LAUNCH_DATE":"2022-08-19","RCS_SIZE":"LARGE","MEAN_ELEMENT_THEORY":"SGP4","APOAPSIS":"540.762","MEAN_MOTION":"15.08859203","PERIOD":"95.436"},{"ARG_OF_PERICENTER":"61.0911","INCLINATION":"53.2170","ECCENTRICITY":"0.00015600","EPOCH":"2022-10-17T22:00:00.999936","ELEMENT_SET_NO":"999","TLE_LINE1":"1 53534U 22101H   22290.91667824 -.00038549  00000-0 -24150-2 0  9999","COUNTRY_CODE":"US","BSTAR":"-0.00241500000000","MEAN_MOTION_DOT":"-0.00038549","SITE":"AFETR","TIME_SYSTEM":"UTC","FILE":"3620294","EPHEMERIS_TYPE":"0","CENTER_NAME":"EARTH","DECAY_DATE":null,"SEMIMAJOR_AXIS":"6917.789","RA_OF_ASC_NODE":"235.1736","REV_AT_EPOCH":"130","OBJECT_NAME":"STARLINK-4488","CLASSIFICATION_TYPE":"U","OBJECT_TYPE":"PAYLOAD","MEAN_ELEMENT_THEORY":"SGP4","RCS_SIZE":"LARGE","LAUNCH_DATE":"2022-08-19","PERIOD":"95.436","MEAN_MOTION":"15.08869800","APOAPSIS":"540.733","REF_FRAME":"TEME","OBJECT_ID":"2022-101H","MEAN_ANOMALY":"35.9788","TLE_LINE2":"2 53534  53.2170 235.1736 0001560  61.0911  35.9788 15.08869800  1306","GP_ID":"215451347","NORAD_CAT_ID":"53534","MEAN_MOTION_DDOT":"0.0000000000000","PERIAPSIS":"538.575"},{"PERIOD":"95.437","MEAN_MOTION":"15.08853327","APOAPSIS":"540.732","MEAN_ELEMENT_THEORY":"SGP4","RCS_SIZE":"LARGE","LAUNCH_DATE":"2022-08-19","NORAD_CAT_ID":"53535","MEAN_MOTION_DDOT":"0.0000000000000","PERIAPSIS":"538.677","REF_FRAME":"TEME","OBJECT_ID":"2022-101J","MEAN_ANOMALY":"349.6051","TLE_LINE2":"2 53535  53.2167 235.1735 0001485  67.4529 349.6051 15.08853327  1308","GP_ID":"215452342","MEAN_MOTION_DOT":"0.00000173","SITE":"AFETR","CENTER_NAME":"EARTH","FILE":"3620294","TIME_SYSTEM":"UTC","EPHEMERIS_TYPE":"0","DECAY_DATE":null,"SEMIMAJOR_AXIS":"6917.840","RA_OF_ASC_NODE":"235.1735","ARG_OF_PERICENTER":"67.4529","EPOCH":"2022-10-17T22:00:00.999936","ECCENTRICITY":"0.00014850","INCLINATION":"53.2167","ELEMENT_SET_NO":"999","TLE_LINE1":"1 53535U 22101J   22290.91667824  .00000173  00000-0  28973-4 0  9999","COUNTRY_CODE":"US","BSTAR":"0.00002897300000","CLASSIFICATION_TYPE":"U","OBJECT_TYPE":"PAYLOAD","REV_AT_EPOCH":"130","OBJECT_NAME":"STARLINK-4138"},{"APOAPSIS":"463.427","MEAN_MOTION":"15.34490020","PERIOD":"93.842","LAUNCH_DATE":"2022-08-19","RCS_SIZE":"LARGE","MEAN_ELEMENT_THEORY":"SGP4","PERIAPSIS":"461.449","NORAD_CAT_ID":"53536","MEAN_MOTION_DDOT":"0.0000000000000","MEAN_ANOMALY":"135.2820","GP_ID":"215451513","TLE_LINE2":"2 53536  53.2176 225.2325 0001446  65.3244 135.2820 15.34490020  1301","OBJECT_ID":"2022-101K","REF_FRAME":"TEME","DECAY_DATE":null,"RA_OF_ASC_NODE":"225.2325","SEMIMAJOR_AXIS":"6840.573","MEAN_MOTION_DOT":"-0.01066162","SITE":"AFETR","CENTER_NAME":"EARTH","FILE":"3620294","EPHEMERIS_TYPE":"0","TIME_SYSTEM":"UTC","BSTAR":"-0.03427900000000","TLE_LINE1":"1 53536U 22101K   22290.91667824 -.01066162  00000-0 -34279-1 0  9996","COUNTRY_CODE":"US","ECCENTRICITY":"0.00014460","EPOCH":"2022-10-17T22:00:00.999936","INCLINATION":"53.2176","ELEMENT_SET_NO":"999","ARG_OF_PERICENTER":"65.3244","OBJECT_TYPE":"PAYLOAD","CLASSIFICATION_TYPE":"U","OBJECT_NAME":"STARLINK-4053","REV_AT_EPOCH":"130"},{"REF_FRAME":"TEME","OBJECT_ID":"2022-101L","TLE_LINE2":"2 53537  53.2166 235.1740 0001544  58.6807 338.3191 15.08881987  1305","GP_ID":"215452250","MEAN_ANOMALY":"338.3191","MEAN_MOTION_DDOT":"0.0000000000000","NORAD_CAT_ID":"53537","PERIAPSIS":"538.549","MEAN_ELEMENT_THEORY":"SGP4","RCS_SIZE":"LARGE","LAUNCH_DATE":"2022-08-19","PERIOD":"95.435","MEAN_MOTION":"15.08881987","APOAPSIS":"540.685","REV_AT_EPOCH":"130","OBJECT_NAME":"STARLINK-4120","CLASSIFICATION_TYPE":"U","OBJECT_TYPE":"PAYLOAD","ARG_OF_PERICENTER":"58.6807","EPOCH":"2022-10-17T22:00:00.999936","ECCENTRICITY":"0.00015440","INCLINATION":"53.2166","ELEMENT_SET_NO":"999","COUNTRY_CODE":"US","TLE_LINE1":"1 53537U 22101L   22290.91667824 -.00036332  00000-0 -22736-2 0  9998","BSTAR":"-0.00227360000000","FILE":"3620294","TIME_SYSTEM":"UTC","EPHEMERIS_TYPE":"0","CENTER_NAME":"EARTH","MEAN_MOTION_DOT":"-0.00036332","SITE":"AFETR","SEMIMAJOR_AXIS":"6917.752","RA_OF_ASC_NODE":"235.1740","DECAY_DATE":null},{"RCS_SIZE":"LARGE","MEAN_ELEMENT_THEORY":"SGP4","LAUNCH_DATE":"2022-08-19","PERIOD":"94.257","APOAPSIS":"483.494","MEAN_MOTION":"15.27738081","OBJECT_ID":"2022-101M","REF_FRAME":"TEME","GP_ID":"215451766","TLE_LINE2":"2 53538  53.2176 225.8102 0001336  87.4600 162.0945 15.27738081  1301","MEAN_ANOMALY":"162.0945","MEAN_MOTION_DDOT":"0.0000000000000","NORAD_CAT_ID":"53538","PERIAPSIS":"481.661","ECCENTRICITY":"0.00013360","INCLINATION":"53.2176","ELEMENT_SET_NO":"999","EPOCH":"2022-10-17T22:00:00.999936","ARG_OF_PERICENTER":"87.4600","BSTAR":"-0.04228600000000","COUNTRY_CODE":"US","TLE_LINE1":"1 53538U 22101M   22290.91667824 -.01064479  00000-0 -42286-1 0  9994","FILE":"3620294","TIME_SYSTEM":"UTC","CENTER_NAME":"EARTH","EPHEMERIS_TYPE":"0","MEAN_MOTION_DOT":"-0.01064479","SITE":"AFETR","RA_OF_ASC_NODE":"225.8102","SEMIMAJOR_AXIS":"6860.713","DECAY_DATE":null,"REV_AT_EPOCH":"130","OBJECT_NAME":"STARLINK-4118","CLASSIFICATION_TYPE":"U","OBJECT_TYPE":"PAYLOAD"},{"MEAN_ANOMALY":"8.1242","TLE_LINE2":"2 53539  53.2167 235.1729 0001478  68.9441   8.1242 15.08877137  1300","GP_ID":"215452098","REF_FRAME":"TEME","OBJECT_ID":"2022-101N","PERIAPSIS":"538.609","MEAN_MOTION_DDOT":"0.0000000000000","NORAD_CAT_ID":"53539","LAUNCH_DATE":"2022-08-19","MEAN_ELEMENT_THEORY":"SGP4","RCS_SIZE":"LARGE","MEAN_MOTION":"15.08877137","APOAPSIS":"540.654","PERIOD":"95.435","OBJECT_NAME":"STARLINK-4123","REV_AT_EPOCH":"130","OBJECT_TYPE":"PAYLOAD","CLASSIFICATION_TYPE":"U","COUNTRY_CODE":"US","TLE_LINE1":"1 53539U 22101N   22290.91667824 -.00039403  00000-0 -24687-2 0  9999","BSTAR":"-0.00246870000000","ARG_OF_PERICENTER":"68.9441","ECCENTRICITY":"0.00014780","INCLINATION":"53.2167","EPOCH":"2022-10-17T22:00:00.999936","ELEMENT_SET_NO":"999","DECAY_DATE":null,"SEMIMAJOR_AXIS":"6917.767","RA_OF_ASC_NODE":"235.1729","SITE":"AFETR","MEAN_MOTION_DOT":"-0.00039403","FILE":"3620294","CENTER_NAME":"EARTH","TIME_SYSTEM":"UTC","EPHEMERIS_TYPE":"0"},{"MEAN_MOTION_DDOT":"0.0000000000000","NORAD_CAT_ID":"53540","PERIAPSIS":"480.824","REF_FRAME":"TEME","OBJECT_ID":"2022-101P","MEAN_ANOMALY":"181.1931","TLE_LINE2":"2 53540  53.2176 225.8167 0001325  79.8670 181.1931 15.28020488  1308","GP_ID":"215451932","PERIOD":"94.240","MEAN_MOTION":"15.28020488","APOAPSIS":"482.641","MEAN_ELEMENT_THEORY":"SGP4","RCS_SIZE":"LARGE","LAUNCH_DATE":"2022-08-19","CLASSIFICATION_TYPE":"U","OBJECT_TYPE":"PAYLOAD","REV_AT_EPOCH":"130","OBJECT_NAME":"STARLINK-4486","SITE":"AFETR","MEAN_MOTION_DOT":"-0.01064716","CENTER_NAME":"EARTH","FILE":"3620294","EPHEMERIS_TYPE":"0","TIME_SYSTEM":"UTC","DECAY_DATE":null,"SEMIMAJOR_AXIS":"6859.867","RA_OF_ASC_NODE":"225.8167","ARG_OF_PERICENTER":"79.8670","EPOCH":"2022-10-17T22:00:00.999936","INCLINATION":"53.2176","ECCENTRICITY":"0.00013250","ELEMENT_SET_NO":"999","COUNTRY_CODE":"US","TLE_LINE1":"1 53540U 22101P   22290.91667824 -.01064716  00000-0 -41931-1 0  9997","BSTAR":"-0.04193100000000"},{"OBJECT_TYPE":"PAYLOAD","CLASSIFICATION_TYPE":"U","OBJECT_NAME":"STARLINK-4485","REV_AT_EPOCH":"130","SEMIMAJOR_AXIS":"6917.791","RA_OF_ASC_NODE":"235.1687","DECAY_DATE":null,"CENTER_NAME":"EARTH","FILE":"3620294","TIME_SYSTEM":"UTC","EPHEMERIS_TYPE":"0","SITE":"AFETR","MEAN_MOTION_DOT":"-0.00034917","COUNTRY_CODE":"US","TLE_LINE1":"1 53541U 22101Q   22290.91667824 -.00034917  00000-0 -21847-2 0  9992","BSTAR":"-0.00218470000000","ARG_OF_PERICENTER":"67.1480","INCLINATION":"53.2178","ECCENTRICITY":"0.00016080","EPOCH":"2022-10-17T22:00:00.999936","ELEMENT_SET_NO":"999","PERIAPSIS":"538.543","NORAD_CAT_ID":"53541","MEAN_MOTION_DDOT":"0.0000000000000","TLE_LINE2":"2 53541  53.2178 235.1687 0001608  67.1480  49.9502 15.08869389  1309","GP_ID":"215452495","MEAN_ANOMALY":"49.9502","REF_FRAME":"TEME","OBJECT_ID":"2022-101Q","MEAN_MOTION":"15.08869389","APOAPSIS":"540.768","PERIOD":"95.436","LAUNCH_DATE":"2022-08-19","MEAN_ELEMENT_THEORY":"SGP4","RCS_SIZE":"LARGE"},{"BSTAR":"-0.04120100000000","COUNTRY_CODE":"US","TLE_LINE1":"1 53542U 22101R   22290.91667824 -.01065326  00000-0 -41201-1 0  9997","INCLINATION":"53.2177","ECCENTRICITY":"0.00012790","EPOCH":"2022-10-17T22:00:00.999936","ELEMENT_SET_NO":"999","ARG_OF_PERICENTER":"79.7568","DECAY_DATE":null,"RA_OF_ASC_NODE":"225.8312","SEMIMAJOR_AXIS":"6858.100","SITE":"AFETR","MEAN_MOTION_DOT":"-0.01065326","FILE":"3620294","TIME_SYSTEM":"UTC","CENTER_NAME":"EARTH","EPHEMERIS_TYPE":"0","OBJECT_NAME":"STARLINK-4489","REV_AT_EPOCH":"130","OBJECT_TYPE":"PAYLOAD","CLASSIFICATION_TYPE":"U","LAUNCH_DATE":"2022-08-19","RCS_SIZE":"LARGE","MEAN_ELEMENT_THEORY":"SGP4","APOAPSIS":"480.842","MEAN_MOTION":"15.28611324","PERIOD":"94.203","MEAN_ANOMALY":"203.1258","GP_ID":"215451348","TLE_LINE2":"2 53542  53.2177 225.8312 0001279  79.7568 203.1258 15.28611324  1308","OBJECT_ID":"2022-101R","REF_FRAME":"TEME","PERIAPSIS":"479.088","MEAN_MOTION_DDOT":"0.0000000000000","NORAD_CAT_ID":"53542"}];
